H1 CPF 01  gfz 2022 12 05 13  8392 tandemx   
H2 1003001  6202 36605    2022 12 05 12 59 42 2022 12 10 00 00 42   120 1 1  0 0 0
H9
10 0 59920   6462.000000  0   -3176866.769  -5802151.293   1915522.399
10 0 59920   6582.000000  0   -3183227.023  -5443328.946   2764932.970
10 0 59920   6702.000000  0   -3126813.512  -4989758.162   3565648.628
10 0 59920   6822.000000  0   -3007040.819  -4450485.728   4303576.735
10 0 59920   6942.000000  0   -2824608.702  -3836063.081   4965742.838
10 0 59920   7062.000000  0   -2581511.456  -3158331.889   5540519.490
10 0 59920   7182.000000  0   -2281019.432  -2430188.115   6017827.942
10 0 59920   7302.000000  0   -1927634.696  -1665331.449   6389310.231
10 0 59920   7422.000000  0   -1527021.392   -878003.629   6648471.342
10 0 59920   7542.000000  0   -1085912.112    -82719.201   6790785.971
10 0 59920   7662.000000  0    -611994.425    706001.632   6813770.705
10 0 59920   7782.000000  0    -113777.133   1473897.163   6717025.670
10 0 59920   7902.000000  0     399562.461   2207221.968   6502241.308
10 0 59920   8022.000000  0     918347.378   2892992.931   6173170.145
10 0 59920   8142.000000  0    1432582.366   3519219.469   5735565.319
10 0 59920   8262.000000  0    1932145.461   4075116.326   5197085.856
10 0 59920   8382.000000  0    2406987.348   4551294.620   4567168.923
10 0 59920   8502.000000  0    2847334.745   4939926.627   3856868.755
10 0 59920   8622.000000  0    3243891.712   5234880.170   3078666.764
10 0 59920   8742.000000  0    3588038.161   5431824.534   2246254.816
10 0 59920   8862.000000  0    3872018.865   5528298.727   1374288.952
10 0 59920   8982.000000  0    4089115.065   5523741.228    478126.723
10 0 59920   9102.000000  0    4233798.153   5419482.795   -426451.952
10 0 59920   9222.000000  0    4301859.843   5218698.265  -1323531.108
10 0 59920   9342.000000  0    4290516.488   4926322.881  -2197346.519
10 0 59920   9462.000000  0    4198483.973   4548933.762  -3032569.764
10 0 59920   9582.000000  0    4026021.317   4094599.952  -3814582.240
10 0 59920   9702.000000  0    3774942.499   3572704.577  -4529731.662
10 0 59920   9822.000000  0    3448598.511   2993745.769  -5165567.373
10 0 59920   9942.000000  0    3051828.591   2369120.333  -5711051.307
10 0 59920  10062.000000  0    2590882.949   1710895.706  -6156740.336
10 0 59920  10182.000000  0    2073319.385   1031575.083  -6494938.609
10 0 59920  10302.000000  0    1507876.471    343861.272  -6719817.787
10 0 59920  10422.000000  0     904326.689   -339576.560  -6827508.069
10 0 59920  10542.000000  0     273308.289  -1006332.011  -6816158.293
10 0 59920  10662.000000  0    -373858.538  -1644480.884  -6685962.295
10 0 59920  10782.000000  0   -1025368.900  -2242788.046  -6439156.349
10 0 59920  10902.000000  0   -1669143.588  -2790901.749  -6079986.019
10 0 59920  11022.000000  0   -2293047.718  -3279530.914  -5614640.245
10 0 59920  11142.000000  0   -2885115.220  -3700603.088  -5051156.121
10 0 59920  11262.000000  0   -3433777.806  -4047402.194  -4399292.439
10 0 59920  11382.000000  0   -3928092.361  -4314681.196  -3670370.855
10 0 59920  11502.000000  0   -4357961.956  -4498747.643  -2877088.394
10 0 59920  11622.000000  0   -4714346.632  -4597520.134  -2033302.150
10 0 59920  11742.000000  0   -4989458.141  -4610553.201  -1153789.408
10 0 59920  11862.000000  0   -5176933.605  -4539029.782   -253987.381
10 0 59920  11982.000000  0   -5271983.633  -4385721.200    650282.534
10 0 59920  12102.000000  0   -5271510.169  -4154914.515   1543101.375
10 0 59920  12222.000000  0   -5174189.803  -3852307.932   2408742.696
10 0 59920  12342.000000  0   -4980520.852  -3484877.587   3231958.395
10 0 59920  12462.000000  0   -4692833.475  -3060719.879   3998254.405
10 0 59920  12582.000000  0   -4315262.440  -2588872.877   4694151.500
10 0 59920  12702.000000  0   -3853682.775  -2079121.301   5307423.578
10 0 59920  12822.000000  0   -3315612.836  -1541791.942   5827310.080
10 0 59920  12942.000000  0   -2710086.406   -987543.106   6244702.216
10 0 59920  13062.000000  0   -2047494.511   -427150.834   6552298.578
10 0 59920  13182.000000  0   -1339401.166    128702.154   6744725.859
10 0 59920  13302.000000  0    -598338.943    669628.475   6818625.813
10 0 59920  13422.000000  0     162412.996   1185729.068   6772710.347
10 0 59920  13542.000000  0     929066.293   1667774.008   6607782.771
10 0 59920  13662.000000  0    1687572.829   2107367.879   6326724.297
10 0 59920  13782.000000  0    2423881.235   2497095.943   5934446.358
10 0 59920  13902.000000  0    3124197.434   2830650.442   5437810.886
10 0 59920  14022.000000  0    3775246.228   3102935.297   4845516.508
10 0 59920  14142.000000  0    4364526.133   3310146.413   4167950.729
10 0 59920  14262.000000  0    4880554.439   3449825.917   3417014.086
10 0 59920  14382.000000  0    5313100.653   3520890.631   2605912.562
10 0 59920  14502.000000  0    5653395.226   3523629.927   1748923.023
10 0 59920  14622.000000  0    5894312.852   3459676.606    861138.299
10 0 59920  14742.000000  0    6030525.039   3331949.625    -41806.062
10 0 59920  14862.000000  0    6058616.471   3144569.284   -944016.034
10 0 59920  14982.000000  0    5977163.301   2902747.625  -1829627.515
10 0 59920  15102.000000  0    5786770.412   2612658.113  -2683092.397
10 0 59920  15222.000000  0    5490068.692   2281287.799  -3489457.244
10 0 59920  15342.000000  0    5091672.508   1916274.485  -4234627.977
10 0 59920  15462.000000  0    4598097.803   1525733.806  -4905616.364
10 0 59920  15582.000000  0    4017643.419   1118081.132  -5490760.418
10 0 59920  15702.000000  0    3360242.247    701853.383  -5979918.325
10 0 59920  15822.000000  0    2637283.313    285533.562  -6364634.233
10 0 59920  15942.000000  0    1861409.382   -122618.099  -6638272.415
10 0 59920  16062.000000  0    1046295.823   -514723.498  -6796120.960
10 0 59920  16182.000000  0     206411.428   -883434.792  -6835465.471
10 0 59920  16302.000000  0    -643234.264  -1222067.893  -6755628.947
10 0 59920  16422.000000  0   -1487351.944  -1524719.986  -6557982.252
10 0 59920  16542.000000  0   -2310641.558  -1786370.397  -6245923.755
10 0 59920  16662.000000  0   -3098063.445  -2002962.633  -5824826.240
10 0 59920  16782.000000  0   -3835108.159  -2171467.196  -5301955.009
10 0 59920  16902.000000  0   -4508064.581  -2289924.668  -4686354.861
10 0 59920  17022.000000  0   -5104278.561  -2357466.859  -3988704.554
10 0 59920  17142.000000  0   -5612397.443  -2374316.041  -3221141.838
10 0 59920  17262.000000  0   -6022595.813  -2341761.539  -2397059.375
10 0 59920  17382.000000  0   -6326775.910  -2262113.654  -1530874.717
10 0 59920  17502.000000  0   -6518738.219  -2138635.977   -637778.107
10 0 59920  17622.000000  0   -6594316.643  -1975457.039    266537.736
10 0 59920  17742.000000  0   -6551474.749  -1777463.199   1166160.110
10 0 59920  17862.000000  0   -6390359.328  -1550175.157   2045245.408
10 0 59920  17982.000000  0   -6113309.006  -1299611.988   2888307.575
10 0 59920  18102.000000  0   -5724818.928  -1032145.641   3680498.847
10 0 59920  18222.000000  0   -5231461.908   -754349.342   4407878.665
10 0 59920  18342.000000  0   -4641766.541   -472844.598   5057661.479
10 0 59920  18462.000000  0   -3966060.907   -194150.745   5618440.123
10 0 59920  18582.000000  0   -3216283.111     75460.263   6080384.255
10 0 59920  18702.000000  0   -2405761.375    330100.306   6435408.055
10 0 59920  18822.000000  0   -1548970.653    564388.917   6677305.722
10 0 59920  18942.000000  0    -661269.876    773563.467   6801854.097
10 0 59920  19062.000000  0     241374.569    953573.930   6806880.925
10 0 59920  19182.000000  0    1142675.256   1101160.128   6692299.987
10 0 59920  19302.000000  0    2026316.590   1213911.007   6460112.626
10 0 59920  19422.000000  0    2876249.270   1290304.187   6114374.971
10 0 59920  19542.000000  0    3676982.865   1329725.434   5661132.194
10 0 59920  19662.000000  0    4413871.095   1332467.732   5108317.484
10 0 59920  19782.000000  0    5073383.511   1299710.407   4465620.052
10 0 59920  19902.000000  0    5643363.071   1233478.489   3744321.967
10 0 59920  20022.000000  0    6113260.554   1136583.143   2957101.452
10 0 59920  20142.000000  0    6474338.454   1012543.165   2117809.638
10 0 59920  20262.000000  0    6719843.035    865490.569   1241224.846
10 0 59920  20382.000000  0    6845138.095    700062.125    342785.982
10 0 59920  20502.000000  0    6847797.099    521279.132   -561686.728
10 0 59920  20622.000000  0    6727650.648    334418.712  -1456280.138
10 0 59920  20742.000000  0    6486787.152    144880.196  -2325276.640
10 0 59920  20862.000000  0    6129509.022    -41950.612  -3153436.547
10 0 59920  20982.000000  0    5662245.765   -220835.058  -3926269.491
10 0 59920  21102.000000  0    5093425.563   -386809.955  -4630288.981
10 0 59920  21222.000000  0    4433309.515   -535306.869  -5253243.727
10 0 59920  21342.000000  0    3693795.718   -662260.346  -5784323.210
10 0 59920  21462.000000  0    2888196.338   -764203.812  -6214336.435
10 0 59920  21582.000000  0    2030991.619   -838349.955  -6535859.932
10 0 59920  21702.000000  0    1137568.105   -882654.211  -6743353.834
10 0 59920  21822.000000  0     223944.979   -895862.127  -6833248.145
10 0 59920  21942.000000  0    -693508.768   -877537.796  -6803997.171
10 0 59920  22062.000000  0   -1598360.304   -828074.491  -6656103.036
10 0 59920  22182.000000  0   -2474400.925   -748686.631  -6392108.136
10 0 59920  22302.000000  0   -3305929.573   -641383.566  -6016554.793
10 0 59920  22422.000000  0   -4078028.889   -508925.652  -5535916.668
10 0 59920  22542.000000  0   -4776833.525   -354762.780  -4958498.491
10 0 59920  22662.000000  0   -5389782.102   -182956.507  -4294303.714
10 0 59920  22782.000000  0   -5905850.711      1912.636  -3554873.183
10 0 59920  22902.000000  0   -6315762.587    194852.231  -2753093.020
99
